# Made by eph2tle, compiled Jan 19 2024 13:17:52
# Run at Sat Jan 20 16:33:30 2024
#
#    The following TLEs (Two-Line Elements) were generated by fitting
# a numerically-integrated ephemeris,  based on the orbit given below,
# to the SDP4/SGP4 models.  Each TLE is good for the interval between
# its epoch and the epoch of the subsequent TLE (usually one day).
# The maximum deviation between the numerically integrated ephemerides
# and the TLE-based ephemeris, in kilometers,  is given for each TLE
# as the "worst residual".
#
#    This fitting is done using the 'eph2tle' code packaged with Find_Orb.
# The code has details on how the TLEs were computed :
#
#    https://github.com/Bill-Gray/find_orb/eph2tle.cpp
#
#    Be warned:  the error given is that between the numerically
# integrated ephems and the TLE model.  There will usually be at
# least some additional difference between the ephems and the actual
# motion of the satellite,  especially if the ephemerides are based
# on a short arc.  If the following orbital elements say something
# like "[based on] 10 observations 2015 Jan. 1-13",  and the TLEs
# are for 2015 May,  the extrapolation may be tenuous at best.  If
# your application requires a specific level of accuracy,  you may
# want to contact me;  I can give you some idea as to the fit of the
# underlying data (and possibly TLEs based on newer data).
#
#   You can usually find the underlying observational data,  and the
# fitted orbit,  residuals,  ephemerides,  and sometimes some comments
# about the object,  among the pages listed at
#
#    https://www.projectpluto.com/pluto/mpecs/pseudo.htm
#
#    WARNING:  for this object,  "normal" TLEs cannot be fitted.  (This
# usually means an object with an hyperbolic or nearly-parabolic orbit.
# This particular object will be kicked out of the earth-moon system
# into an heliocentric orbit in 2024.)
# For this and similar cases,   an alternative model is used,  in which
# most of the traditional TLE data is replaced by six signed 8-digit hex
# numbers.  These six numbers are a state vector,  numerically integrated
# using a simplified force model.  This is necessary for objects at L2 or
# L1,  and sometimes for objects in high orbits where the SDP4/SGP4 model
# fails.  Some documentation is in 'get_el.cpp' in the source code at
# https://www.github.com/Bill-Gray/sat_code ; look for 'hex' in that file,
# with the actual integration done in 'sdp4.cpp'.  But be aware:  it's my
# own extension,  doesn't work with other code,  and is therefore used
# only when necessary.
#
#    Also,  if you use a TLE outside the "correct" time range (between
# its MJD and that of the next TLE),  all bets are off.  I've carefully
# computed and minimized the worst error over the "correct" time frame,
# but the ephemeris may (or may not) diverge wildly outside of it.
#
# Ephem range: 60310.000000 60676.000000 1.000000
# Created Sat Jan 20 16:33:20 2024
# Ephemeris start:  1 Jan 2024  0:00:00
# Ephemeris end:    1 Jan 2025  0:00:00
# Times are all TDT
# Positions/velocities are in ecliptic J2000
# Orbital elements:  2018-103B = NORAD 43846 = Chang'e 4 booster
#    Perigee 2024 Jan 18.497193 +/- 0.000124 TT = 11:55:57.4 (JD 2460327.997193)
# Epoch 2024 Jan 19.0 TT; AMR 0.011974 +/- 5.23e-5 m^2/kg          Find_Orb
# M   1.385590992 +/- 0.00033         (J2000 equator)
# n   2.755712444 +/- 7.79e-6         Peri.   68.896561 +/- 0.0006
# a   0.007269794 +/- 1.37e-8         Node    60.828984 +/- 0.00013
# e   0.25854368 +/- 8.16e-7          Incl.   28.617116 +/- 0.00006
# P 130.6353d                H 28.10  G  0.15   U  4.8
# q 806367.7334 +/- 1.74    Q 0.009149354 +/- 1.83e-8
# 105 of 191 observations 2023 Oct. 22-2024 Jan. 19; mean residual 1".331
#
# 1 NoradU COSPAR   Epoch.epoch     dn/dt/2  d2n/dt2/6 BSTAR    T El# C
# 2 NoradU Inclina RAAscNode Eccent  ArgPeri MeanAno  MeanMotion Rev# C

# Worst residual: 0.44 km
# MJD 60310.000000 (2024 Jan  1  0:00)
2018-103B = NORAD 43846 = Chang'e 4 booster
1 43846U 18103B   23365.99919926 +0084PVRQ +00EF4K1U -0006FMQ0H 22112
2 43846                          -00037MHW +0000L2Q0 +0001N32G     06

# Worst residual: 0.45 km
# MJD 60311.000000 (2024 Jan  2  0:00)
2018-103B = NORAD 43846 = Chang'e 4 booster
1 43846U 18103B   24001.99919926 +007CIP2K +00EJGXVQ +0007T9LWH 22111
2 43846                          -0003BBWK +0000F2VP +0001NM7C     01

# Worst residual: 0.54 km
# MJD 60312.000000 (2024 Jan  3  0:00)
2018-103B = NORAD 43846 = Chang'e 4 booster
1 43846U 18103B   24002.99919926 +006JGIFA +00EMCEEA +000M6476H 22116
2 43846                          -0003ESQ1 +00008TNB +0001NZWA     01

# Worst residual: 0.69 km
# MJD 60313.000000 (2024 Jan  4  0:00)
2018-103B = NORAD 43846 = Chang'e 4 booster
1 43846U 18103B   24003.99919926 +005PLGOT +00ENONNA +0010LJ6IH 22110
2 43846                          -0003I0B8 +00002AUL +0001O7H1     00

# Worst residual: 0.86 km
# MJD 60314.000000 (2024 Jan  5  0:00)
2018-103B = NORAD 43846 = Chang'e 4 booster
1 43846U 18103B   24004.99919926 +004UZUYA +00ENFELT +001F1YH2H 22117
2 43846                          -0003KXVH -00004HKZ +0001O865     06

# Worst residual: 1.11 km
# MJD 60315.000000 (2024 Jan  6  0:00)
2018-103B = NORAD 43846 = Chang'e 4 booster
1 43846U 18103B   24005.99919926 +003ZQ7QA +00ELIC74 +001THN1PH 22113
2 43846                          -0003NKHM -0000BJL2 +0001O155     06

# Worst residual: 1.09 km
# MJD 60316.000000 (2024 Jan  7  0:00)
2018-103B = NORAD 43846 = Chang'e 4 booster
1 43846U 18103B   24006.99919926 +0033V9V9 +00EHV6J8 +0027UM6RH 22114
2 43846                          -0003PV4V -0000IUXW +0001NLGJ     07

# Worst residual: 0.96 km
# MJD 60317.000000 (2024 Jan  8  0:00)
2018-103B = NORAD 43846 = Chang'e 4 booster
1 43846U 18103B   24007.99919926 +0027I1LV +00ECFQAY +002M2OSGH 22116
2 43846                          -0003RSPE -0000QFA8 +0001MW3P     04

# Worst residual: 0.80 km
# MJD 60318.000000 (2024 Jan  9  0:00)
2018-103B = NORAD 43846 = Chang'e 4 booster
1 43846U 18103B   24008.99919926 +001APT19 +00E55VYY +00303EJSH 22110
2 43846                          -0003TBZW -0000Y83Q +0001LVYP     04

# Worst residual: 0.70 km
# MJD 60319.000000 (2024 Jan 10  0:00)
2018-103B = NORAD 43846 = Chang'e 4 booster
1 43846U 18103B   24009.99919926 +000DM57Q +00DVZOZT +003DU17SH 22117
2 43846                          -0003UFNS -000168R1 +0001KJUQ     09

# Worst residual: 0.74 km
# MJD 60320.000000 (2024 Jan 11  0:00)
2018-103B = NORAD 43846 = Chang'e 4 booster
1 43846U 18103B   24010.99919926 -000JP06R +00DKVD50 +003R7K2GH 22110
2 43846                          -0003V242 -0001EGEL +0001IUJP     02

# Worst residual: 0.88 km
# MJD 60321.000000 (2024 Jan 12  0:00)
2018-103B = NORAD 43846 = Chang'e 4 booster
1 43846U 18103B   24011.99919926 -001H3AI8 +00D7RCAY +00444NY8H 22117
2 43846                          -0003V5GB -0001MTZD +0001GQVH     09

# Worst residual: 0.97 km
# MJD 60322.000000 (2024 Jan 13  0:00)
2018-103B = NORAD 43846 = Chang'e 4 booster
1 43846U 18103B   24012.99919926 -002EFV4X +00CSMDH3 +004GHSCTH 22112
2 43846                          -0003UNFO -0001VBYY +0001E7V9     00

# Worst residual: 0.92 km
# MJD 60323.000000 (2024 Jan 14  0:00)
2018-103B = NORAD 43846 = Chang'e 4 booster
1 43846U 18103B   24013.99919926 -003BLAW3 +00CBFN6K +004S75WHH 22118
2 43846                          -0003THKH -00023W96 +0001B8XO     01

# Worst residual: 0.71 km
# MJD 60324.000000 (2024 Jan 15  0:00)
2018-103B = NORAD 43846 = Chang'e 4 booster
1 43846U 18103B   24014.99919926 -0048DKU4 +00BS6XCB +00534YB0H 22115
2 43846                          -0003RLCZ -0002CFZL +00017U0N     02

# Worst residual: 0.46 km
# MJD 60325.000000 (2024 Jan 16  0:00)
2018-103B = NORAD 43846 = Chang'e 4 booster
1 43846U 18103B   24015.99919926 -0054M3NS +00B6WRNT +005D7DGAH 22112
2 43846                          -0003OWN8 -0002KVLK +00013ZOO     06

# Worst residual: 0.35 km
# MJD 60326.000000 (2024 Jan 17  0:00)
2018-103B = NORAD 43846 = Chang'e 4 booster
1 43846U 18103B   24016.99919926 -00603TY5 +00AJMNC8 +005MAUX1H 22111
2 43846                          -0003LDWP -0002T2XX +0000ZR52     03

# Worst residual: 0.19 km
# MJD 60327.000000 (2024 Jan 18  0:00)
2018-103B = NORAD 43846 = Chang'e 4 booster
1 43846U 18103B   24017.99919926 -006UNGWB +009UF2XG +005UC75PH 22118
2 43846                          -0003H0IO -00030XKE +0000V659     05

# Worst residual: 0.20 km
# MJD 60328.000000 (2024 Jan 19  0:00)
2018-103B = NORAD 43846 = Chang'e 4 booster
1 43846U 18103B   24018.99919926 -007O1OGQ +0093DNNE +00618NTEH 22110
2 43846                          -0003BSTP -00038B0U +0000QAW5     08

# Worst residual: 0.25 km
# MJD 60329.000000 (2024 Jan 20  0:00)
2018-103B = NORAD 43846 = Chang'e 4 booster
1 43846U 18103B   24019.99919926 -008G3BSB +008AN03J +0066Y2SRH 22112
2 43846                          -00035S4L -0003F35I +0000L7UR     09

# Worst residual: 0.31 km
# MJD 60330.000000 (2024 Jan 21  0:00)
2018-103B = NORAD 43846 = Chang'e 4 booster
1 43846U 18103B   24020.99919926 -0096LOXB +007GCOPE +006BEW1EH 22117
2 43846                          -0002Z0K0 -0003L6BC +0000FZMR     00

# Worst residual: 0.32 km
# MJD 60331.000000 (2024 Jan 22  0:00)
2018-103B = NORAD 43846 = Chang'e 4 booster
1 43846U 18103B   24021.99919926 -009VENCC +006KP2JX +006EM5YXH 22117
2 43846                          -0002RKWI -0003QHJD +0000AOT5     09

# Worst residual: 0.31 km
# MJD 60332.000000 (2024 Jan 23  0:00)
2018-103B = NORAD 43846 = Chang'e 4 booster
1 43846U 18103B   24022.99919926 -00AICSTC +005NV55V +006GJKTMH 22111
2 43846                          -0002JKFP -0003UYLV +00005DTU     09

# Worst residual: 0.30 km
# MJD 60333.000000 (2024 Jan 24  0:00)
2018-103B = NORAD 43846 = Chang'e 4 booster
1 43846U 18103B   24023.99919926 -00B3BKRS +004Q2BT2 +006H7CX7H 22112
2 43846                          -0002B2Q3 -0003YK3D +000004VV     06

